IRIDIUM 921 [-]         
1 24873U 97034E   24110.80425104  .00067837  00000+0  19694-2 0  9990
2 24873  86.3810 316.9475 0005923 106.7130 253.4772 15.35217903466219
IRIDIUM 22 [-]          
1 24907U 97043E   24110.89061173  .00001433  00000+0  49485-3 0  9991
2 24907  86.3909 291.4252 0002083  91.2366 268.9069 14.35182803396041
DUMMY MASS 2 [-]        
1 24926U 97048B   24110.64274475  .00001065  00000+0  11900-3 0  9993
2 24926  86.3347 332.5887 0006371 202.0195 158.0757 14.85901476441993
IRIDIUM 29 [-]          
1 24944U 97051A   24110.63293187  .00001051  00000+0  35791-3 0  9996
2 24944  86.3940 321.4711 0002020  94.4046 265.7381 14.35637364392485
IRIDIUM 33 [-]          
1 24946U 97051C   24110.67488009  .00000711  00000+0  24632-3 0  9995
2 24946  86.3854 320.7088 0008910  33.6791 326.4970 14.34314364392026
IRIDIUM 28 [-]          
1 24948U 97051E   24110.67559547  .00001051  00000+0  35128-3 0  9993
2 24948  86.3941 319.2110 0002402  79.6903 280.4565 14.36586512393027
